HAWK-5A                 
1 52757U 22057AB  26197.96201105  .00010385  00000+0  17210-3 0  9991
2 52757  97.6630 358.7605 0003195 330.0631  30.0438 15.52363268230966
HAWK-6B                 
1 55324U 23011A   26198.34559310  .00002520  00000+0  11253-3 0  9995
2 55324  40.4974 176.1324 0004408 251.5496 108.4835 15.23165784192442
HAWK-6C                 
1 55326U 23011C   26198.60722454  .00002146  00000+0  97072-4 0  9995
2 55326  40.4965 171.4414 0004929 246.9733 113.0556 15.23166774192499
HAWK-6A                 
1 55327U 23011D   26198.34499843  .00002348  00000+0  10543-3 0  9991
2 55327  40.4975 174.5982 0004531 242.4920 117.5429 15.23165655192454
HAWK-7A                 
1 56191U 23054P   26198.11313913  .00002943  00000+0  11158-3 0  9990
2 56191  97.2658  84.6895 0001232 321.9127  38.2026 15.27644350181596
HAWK-7B                 
1 56193U 23054R   26198.63709246  .00002842  00000+0  10784-3 0  9999
2 56193  97.2682  83.4747 0001057  10.8707 349.2555 15.27645552181677
HAWK-7C                 
1 56200U 23054Y   26198.63696519  .00002819  00000+0  10699-3 0  9995
2 56200  97.2658  84.2340 0000687 342.1037  18.0178 15.27648156181677
